[{"OBJECT_NAME":"ONEWEB-0356","OBJECT_ID":"2021-090E","EPOCH":"2026-01-15T19:17:04.587648","MEAN_MOTION":13.20771556,"ECCENTRICITY":0.0002592,"INCLINATION":87.9231,"RA_OF_ASC_NODE":304.8339,"ARG_OF_PERICENTER":70.7561,"MEAN_ANOMALY":289.3853,"EPHEMERIS_TYPE":0,"CLASSIFICATION_TYPE":"U","NORAD_CAT_ID":49283,"ELEMENT_SET_NO":999,"REV_AT_EPOCH":20971,"BSTAR":-2.7093159e-5,"MEAN_MOTION_DOT":2.0e-8,"MEAN_MOTION_DDOT":0},{"OBJECT_NAME":"ONEWEB-0358","OBJECT_ID":"2021-090F","EPOCH":"2026-01-16T05:05:42.579168","MEAN_MOTION":13.20772107,"ECCENTRICITY":0.00018275,"INCLINATION":87.9232,"RA_OF_ASC_NODE":304.7543,"ARG_OF_PERICENTER":79.1838,"MEAN_ANOMALY":280.9501,"EPHEMERIS_TYPE":0,"CLASSIFICATION_TYPE":"U","NORAD_CAT_ID":49284,"ELEMENT_SET_NO":999,"REV_AT_EPOCH":21049,"BSTAR":0.00018207973,"MEAN_MOTION_DOT":8.7e-7,"MEAN_MOTION_DDOT":0},{"OBJECT_NAME":"ONEWEB-0359","OBJECT_ID":"2021-090G","EPOCH":"2026-01-16T05:01:09.787584","MEAN_MOTION":13.20771587,"ECCENTRICITY":0.00018787,"INCLINATION":87.9231,"RA_OF_ASC_NODE":304.7532,"ARG_OF_PERICENTER":88.5099,"MEAN_ANOMALY":271.625,"EPHEMERIS_TYPE":0,"CLASSIFICATION_TYPE":"U","NORAD_CAT_ID":49285,"ELEMENT_SET_NO":999,"REV_AT_EPOCH":21047,"BSTAR":0.00016209282,"MEAN_MOTION_DOT":7.9e-7,"MEAN_MOTION_DDOT":0},{"OBJECT_NAME":"ONEWEB-0360","OBJECT_ID":"2021-090H","EPOCH":"2026-01-16T04:47:31.569216","MEAN_MOTION":13.20772655,"ECCENTRICITY":0.00017217,"INCLINATION":87.9229,"RA_OF_ASC_NODE":304.7618,"ARG_OF_PERICENTER":81.0138,"MEAN_ANOMALY":279.119,"EPHEMERIS_TYPE":0,"CLASSIFICATION_TYPE":"U","NORAD_CAT_ID":49286,"ELEMENT_SET_NO":999,"REV_AT_EPOCH":20978,"BSTAR":0.00020787641,"MEAN_MOTION_DOT":9.7e-7,"MEAN_MOTION_DDOT":0},{"OBJECT_NAME":"ONEWEB-0361","OBJECT_ID":"2021-090J","EPOCH":"2026-01-16T06:09:20.822400","MEAN_MOTION":13.20773078,"ECCENTRICITY":0.00019032,"INCLINATION":87.923,"RA_OF_ASC_NODE":304.7474,"ARG_OF_PERICENTER":74.5648,"MEAN_ANOMALY":285.5695,"EPHEMERIS_TYPE":0,"CLASSIFICATION_TYPE":"U","NORAD_CAT_ID":49287,"ELEMENT_SET_NO":999,"REV_AT_EPOCH":21024,"BSTAR":-3.1503146e-5,"MEAN_MOTION_DOT":0,"MEAN_MOTION_DDOT":0},{"OBJECT_NAME":"ONEWEB-0362","OBJECT_ID":"2021-090K","EPOCH":"2026-01-16T05:46:09.016032","MEAN_MOTION":13.19726288,"ECCENTRICITY":0.00015376,"INCLINATION":87.9224,"RA_OF_ASC_NODE":335.2189,"ARG_OF_PERICENTER":83.3891,"MEAN_ANOMALY":276.7416,"EPHEMERIS_TYPE":0,"CLASSIFICATION_TYPE":"U","NORAD_CAT_ID":49288,"ELEMENT_SET_NO":999,"REV_AT_EPOCH":20687,"BSTAR":0.00017846414,"MEAN_MOTION_DOT":8.4e-7,"MEAN_MOTION_DDOT":0},{"OBJECT_NAME":"ONEWEB-0363","OBJECT_ID":"2021-090L","EPOCH":"2026-01-16T06:32:04.217856","MEAN_MOTION":13.20771153,"ECCENTRICITY":0.00020972,"INCLINATION":87.9234,"RA_OF_ASC_NODE":304.7443,"ARG_OF_PERICENTER":73.8462,"MEAN_ANOMALY":286.2902,"EPHEMERIS_TYPE":0,"CLASSIFICATION_TYPE":"U","NORAD_CAT_ID":49289,"ELEMENT_SET_NO":999,"REV_AT_EPOCH":21025,"BSTAR":-4.129658e-6,"MEAN_MOTION_DOT":1.1e-7,"MEAN_MOTION_DDOT":0},{"OBJECT_NAME":"ONEWEB-0364","OBJECT_ID":"2021-090M","EPOCH":"2026-01-16T05:37:31.606176","MEAN_MOTION":13.20771867,"ECCENTRICITY":0.00018146,"INCLINATION":87.9224,"RA_OF_ASC_NODE":304.772,"ARG_OF_PERICENTER":76.8162,"MEAN_ANOMALY":283.3173,"EPHEMERIS_TYPE":0,"CLASSIFICATION_TYPE":"U","NORAD_CAT_ID":49290,"ELEMENT_SET_NO":999,"REV_AT_EPOCH":21138,"BSTAR":0.00011112447,"MEAN_MOTION_DOT":5.8e-7,"MEAN_MOTION_DDOT":0},{"OBJECT_NAME":"ONEWEB-0365","OBJECT_ID":"2021-090N","EPOCH":"2026-01-16T04:10:36.633504","MEAN_MOTION":13.19727302,"ECCENTRICITY":0.0001694,"INCLINATION":87.9244,"RA_OF_ASC_NODE":335.2033,"ARG_OF_PERICENTER":77.4553,"MEAN_ANOMALY":282.6769,"EPHEMERIS_TYPE":0,"CLASSIFICATION_TYPE":"U","NORAD_CAT_ID":49291,"ELEMENT_SET_NO":999,"REV_AT_EPOCH":20637,"BSTAR":0.00011241812,"MEAN_MOTION_DOT":5.8e-7,"MEAN_MOTION_DDOT":0},{"OBJECT_NAME":"ONEWEB-0366","OBJECT_ID":"2021-090P","EPOCH":"2026-01-16T04:48:27.254016","MEAN_MOTION":13.14500612,"ECCENTRICITY":0.0001748,"INCLINATION":87.9018,"RA_OF_ASC_NODE":320.0057,"ARG_OF_PERICENTER":79.3621,"MEAN_ANOMALY":280.7705,"EPHEMERIS_TYPE":0,"CLASSIFICATION_TYPE":"U","NORAD_CAT_ID":49292,"ELEMENT_SET_NO":999,"REV_AT_EPOCH":20759,"BSTAR":-4.2172158e-5,"MEAN_MOTION_DOT":-3.0e-8,"MEAN_MOTION_DDOT":0},{"OBJECT_NAME":"ONEWEB-0367","OBJECT_ID":"2021-090Q","EPOCH":"2026-01-16T04:40:42.489408","MEAN_MOTION":13.20772469,"ECCENTRICITY":0.00015105,"INCLINATION":87.923,"RA_OF_ASC_NODE":304.7589,"ARG_OF_PERICENTER":74.9379,"MEAN_ANOMALY":285.1922,"EPHEMERIS_TYPE":0,"CLASSIFICATION_TYPE":"U","NORAD_CAT_ID":49293,"ELEMENT_SET_NO":999,"REV_AT_EPOCH":20976,"BSTAR":-1.6863167e-5,"MEAN_MOTION_DOT":6.0e-8,"MEAN_MOTION_DDOT":0},{"OBJECT_NAME":"ONEWEB-0368","OBJECT_ID":"2021-090R","EPOCH":"2026-01-16T05:51:09.485856","MEAN_MOTION":13.20773237,"ECCENTRICITY":0.00021463,"INCLINATION":87.9224,"RA_OF_ASC_NODE":304.7765,"ARG_OF_PERICENTER":55.9479,"MEAN_ANOMALY":304.1858,"EPHEMERIS_TYPE":0,"CLASSIFICATION_TYPE":"U","NORAD_CAT_ID":49294,"ELEMENT_SET_NO":999,"REV_AT_EPOCH":21092,"BSTAR":0.00011164412,"MEAN_MOTION_DOT":5.8e-7,"MEAN_MOTION_DDOT":0},{"OBJECT_NAME":"ONEWEB-0369","OBJECT_ID":"2021-090S","EPOCH":"2026-01-16T05:52:57.865152","MEAN_MOTION":13.19724438,"ECCENTRICITY":0.00017877,"INCLINATION":87.9232,"RA_OF_ASC_NODE":335.2128,"ARG_OF_PERICENTER":76.7615,"MEAN_ANOMALY":283.3717,"EPHEMERIS_TYPE":0,"CLASSIFICATION_TYPE":"U","NORAD_CAT_ID":49295,"ELEMENT_SET_NO":999,"REV_AT_EPOCH":20637,"BSTAR":-1.6498228e-5,"MEAN_MOTION_DOT":6.0e-8,"MEAN_MOTION_DDOT":0},{"OBJECT_NAME":"ONEWEB-0370","OBJECT_ID":"2021-090T","EPOCH":"2026-01-16T04:54:20.770848","MEAN_MOTION":13.20771607,"ECCENTRICITY":0.00015724,"INCLINATION":87.9229,"RA_OF_ASC_NODE":304.7605,"ARG_OF_PERICENTER":87.4773,"MEAN_ANOMALY":272.6541,"EPHEMERIS_TYPE":0,"CLASSIFICATION_TYPE":"U","NORAD_CAT_ID":49296,"ELEMENT_SET_NO":999,"REV_AT_EPOCH":20980,"BSTAR":0.00017037068,"MEAN_MOTION_DOT":8.2e-7,"MEAN_MOTION_DDOT":0},{"OBJECT_NAME":"ONEWEB-0371","OBJECT_ID":"2021-090U","EPOCH":"2026-01-16T04:15:10.407456","MEAN_MOTION":13.19725616,"ECCENTRICITY":0.00016952,"INCLINATION":87.9232,"RA_OF_ASC_NODE":335.2148,"ARG_OF_PERICENTER":83.0415,"MEAN_ANOMALY":277.0911,"EPHEMERIS_TYPE":0,"CLASSIFICATION_TYPE":"U","NORAD_CAT_ID":49297,"ELEMENT_SET_NO":999,"REV_AT_EPOCH":20640,"BSTAR":-4.6607587e-5,"MEAN_MOTION_DOT":-6.0e-8,"MEAN_MOTION_DDOT":0},{"OBJECT_NAME":"ONEWEB-0372","OBJECT_ID":"2021-090V","EPOCH":"2026-01-16T06:27:19.719936","MEAN_MOTION":13.2077194,"ECCENTRICITY":0.00016335,"INCLINATION":87.9227,"RA_OF_ASC_NODE":304.7466,"ARG_OF_PERICENTER":75.8686,"MEAN_ANOMALY":284.2629,"EPHEMERIS_TYPE":0,"CLASSIFICATION_TYPE":"U","NORAD_CAT_ID":49298,"ELEMENT_SET_NO":999,"REV_AT_EPOCH":20978,"BSTAR":7.1378737e-5,"MEAN_MOTION_DOT":4.2e-7,"MEAN_MOTION_DDOT":0},{"OBJECT_NAME":"ONEWEB-0373","OBJECT_ID":"2021-090W","EPOCH":"2026-01-16T05:17:03.582240","MEAN_MOTION":13.20772811,"ECCENTRICITY":0.00018014,"INCLINATION":87.9221,"RA_OF_ASC_NODE":304.7681,"ARG_OF_PERICENTER":77.8223,"MEAN_ANOMALY":282.3112,"EPHEMERIS_TYPE":0,"CLASSIFICATION_TYPE":"U","NORAD_CAT_ID":49299,"ELEMENT_SET_NO":999,"REV_AT_EPOCH":21096,"BSTAR":0.0001939418,"MEAN_MOTION_DOT":9.2e-7,"MEAN_MOTION_DDOT":0},{"OBJECT_NAME":"ONEWEB-0374","OBJECT_ID":"2021-090X","EPOCH":"2026-01-16T06:19:47.415936","MEAN_MOTION":13.14504071,"ECCENTRICITY":0.00022939,"INCLINATION":87.9022,"RA_OF_ASC_NODE":319.9733,"ARG_OF_PERICENTER":73.0457,"MEAN_ANOMALY":287.0924,"EPHEMERIS_TYPE":0,"CLASSIFICATION_TYPE":"U","NORAD_CAT_ID":49300,"ELEMENT_SET_NO":999,"REV_AT_EPOCH":20760,"BSTAR":3.201844e-6,"MEAN_MOTION_DOT":1.4e-7,"MEAN_MOTION_DDOT":0},{"OBJECT_NAME":"ONEWEB-0375","OBJECT_ID":"2021-090Y","EPOCH":"2026-01-16T04:58:52.911840","MEAN_MOTION":13.20773553,"ECCENTRICITY":0.00022728,"INCLINATION":87.9229,"RA_OF_ASC_NODE":304.752,"ARG_OF_PERICENTER":80.3936,"MEAN_ANOMALY":279.7454,"EPHEMERIS_TYPE":0,"CLASSIFICATION_TYPE":"U","NORAD_CAT_ID":49301,"ELEMENT_SET_NO":999,"REV_AT_EPOCH":21046,"BSTAR":0.00019315817,"MEAN_MOTION_DOT":9.2e-7,"MEAN_MOTION_DDOT":0},{"OBJECT_NAME":"ONEWEB-0376","OBJECT_ID":"2021-090Z","EPOCH":"2026-01-16T04:12:53.822880","MEAN_MOTION":13.19725833,"ECCENTRICITY":0.00016192,"INCLINATION":87.9241,"RA_OF_ASC_NODE":335.2042,"ARG_OF_PERICENTER":73.2527,"MEAN_ANOMALY":286.8783,"EPHEMERIS_TYPE":0,"CLASSIFICATION_TYPE":"U","NORAD_CAT_ID":49302,"ELEMENT_SET_NO":999,"REV_AT_EPOCH":20640,"BSTAR":-0.00010755456,"MEAN_MOTION_DOT":-3.0e-7,"MEAN_MOTION_DDOT":0},{"OBJECT_NAME":"ONEWEB-0377","OBJECT_ID":"2021-090AA","EPOCH":"2026-01-16T06:27:43.968096","MEAN_MOTION":13.2077221,"ECCENTRICITY":0.00017603,"INCLINATION":87.9229,"RA_OF_ASC_NODE":304.7424,"ARG_OF_PERICENTER":83.056,"MEAN_ANOMALY":277.0773,"EPHEMERIS_TYPE":0,"CLASSIFICATION_TYPE":"U","NORAD_CAT_ID":49303,"ELEMENT_SET_NO":999,"REV_AT_EPOCH":21046,"BSTAR":1.6723011e-5,"MEAN_MOTION_DOT":2.0e-7,"MEAN_MOTION_DDOT":0},{"OBJECT_NAME":"ONEWEB-0378","OBJECT_ID":"2021-090AB","EPOCH":"2026-01-16T05:10:26.733216","MEAN_MOTION":13.20772813,"ECCENTRICITY":0.00018706,"INCLINATION":87.9226,"RA_OF_ASC_NODE":304.7665,"ARG_OF_PERICENTER":75.6595,"MEAN_ANOMALY":284.4746,"EPHEMERIS_TYPE":0,"CLASSIFICATION_TYPE":"U","NORAD_CAT_ID":49304,"ELEMENT_SET_NO":999,"REV_AT_EPOCH":20972,"BSTAR":0.00021562175,"MEAN_MOTION_DOT":1.01e-6,"MEAN_MOTION_DDOT":0},{"OBJECT_NAME":"ONEWEB-0379","OBJECT_ID":"2021-090AC","EPOCH":"2026-01-16T06:12:56.319552","MEAN_MOTION":13.14504734,"ECCENTRICITY":0.00018312,"INCLINATION":87.9025,"RA_OF_ASC_NODE":319.9836,"ARG_OF_PERICENTER":75.0199,"MEAN_ANOMALY":285.1133,"EPHEMERIS_TYPE":0,"CLASSIFICATION_TYPE":"U","NORAD_CAT_ID":49305,"ELEMENT_SET_NO":999,"REV_AT_EPOCH":20760,"BSTAR":-0.00035740001,"MEAN_MOTION_DOT":-1.2e-6,"MEAN_MOTION_DDOT":0}]
